; Prusa MK4 Specific Start Gcode
; -------------------------
M73 P0 R0
M201 X9000 Y9000 Z500 E10000 ; sets maximum accelerations, mm/sec^2
M203 X500 Y500 Z12 E120 ; sets maximum feedrates, mm/sec
M204 P2000 R1500 T2000 ; sets acceleration (P, T) and retract acceleration (R), mm/sec^2
M205 X10.00 Y10.00 Z0.20 E4.50 ; sets the jerk limits, mm/sec
M205 S0 T0 ; sets the minimum extruding and travel feed rate, mm/sec
M107 ; turns off fan
M862.3 P "MK4" ; printer model check
M862.1 P0.4 ; nozzle diameter check
G90 ; use absolute coordinates
M83  ; extruder relative mode
; Set temperatures
M104 S215.0 ; Set extruder temperature
M140 S50.0 ; Set bed temperature
M190 S50.0 ; Wait for bed to reach temperature
M109 S215.0 ; Wait for extruder to reach temperature
; Bed homing and leveling
G28 W; Auto home
; G80 ; Auto bed leveling
G0 Z5.0 F300 ; Lift nozzle after homing
G0 X0.0 Y0.0 F3000.0 ; Move to origin
G92 E0 ; Reset extruder position
; Set units and positioning
G21 ; Set units to millimeters
G90 ; Use absolute positioning
M83 ; E axis to relative mode
; Print settings: Nozzle Temp=215.0°C, Bed Temp=50.0°C
; Filament: Diameter=1.75mm
; Nozzle: Diameter=0.4mm
; --- START GCODE ---
; ###SIMULATION START###
; Centering print volume (100.00x100.00 mm) on build plate (250.00x210.00 mm) with offset (75.00, 55.00) mm
G1 X75.000 Y55.000 Z1.680 E68.33048 F272.2 ; Intro line: V* 0.16, H* 2.80
G0 X80.000 Y55.000 Z1.680 F3000.0 ; Param jump: V* 0.16, H* 2.80
G1 X85.000 Y55.000 Z1.680 E3.67347 F272.2 ; V* 0.16, H* 2.80
G1 X90.000 Y55.000 Z1.680 E3.67347 F272.2 ; V* 0.16, H* 2.80
G1 X95.000 Y55.000 Z1.680 E3.67347 F272.2 ; V* 0.16, H* 2.80
G1 X100.000 Y55.000 Z1.680 E3.67347 F272.2 ; V* 0.16, H* 2.80
G1 X105.000 Y55.000 Z1.680 E3.67347 F272.2 ; V* 0.16, H* 2.80
G0 X110.000 Y55.000 Z1.680 F3000.0 ; Param jump: V* 0.28, H* 2.80
G1 X115.000 Y55.000 Z1.680 E2.09560 F477.2 ; V* 0.28, H* 2.80
G1 X120.000 Y55.000 Z1.680 E2.09560 F477.2 ; V* 0.28, H* 2.80
G1 X125.000 Y55.000 Z1.680 E2.09560 F477.2 ; V* 0.28, H* 2.80
G1 X130.000 Y55.000 Z1.680 E2.09560 F477.2 ; V* 0.28, H* 2.80
G1 X135.000 Y55.000 Z1.680 E2.09560 F477.2 ; V* 0.28, H* 2.80
G1 X140.000 Y55.000 Z1.680 E2.09560 F477.2 ; V* 0.28, H* 2.80
G0 X145.000 Y55.000 Z1.680 F3000.0 ; Param jump: V* 0.40, H* 2.80
G1 X150.000 Y55.000 Z1.680 E1.46939 F680.6 ; V* 0.40, H* 2.80
G1 X155.000 Y55.000 Z1.680 E1.46939 F680.6 ; V* 0.40, H* 2.80
G1 X160.000 Y55.000 Z1.680 E1.46939 F680.6 ; V* 0.40, H* 2.80
G1 X165.000 Y55.000 Z1.680 E1.46939 F680.6 ; V* 0.40, H* 2.80
G1 X170.000 Y55.000 Z1.680 E1.46939 F680.6 ; V* 0.40, H* 2.80
G1 X175.000 Y55.000 Z1.680 E1.46939 F680.6 ; V* 0.40, H* 2.80
G1 X175.000 Y60.000 Z1.680 E1.46939 F680.6 ; V* 0.40, H* 2.80
G1 X175.000 Y65.000 Z1.680 E1.46939 F680.6 ; V* 0.40, H* 2.80
G1 X175.000 Y70.000 Z1.680 E1.46939 F680.6 ; V* 0.40, H* 2.80
G1 X175.000 Y75.000 Z1.680 E1.46939 F680.6 ; V* 0.40, H* 2.80
G1 X175.000 Y80.000 Z1.680 E1.46939 F680.6 ; V* 0.40, H* 2.80
G1 X175.000 Y85.000 Z1.680 E1.46939 F680.6 ; V* 0.40, H* 2.80
G0 X175.000 Y90.000 Z3.547 F3000.0 ; Param jump: V* 0.40, H* 5.91
G1 X175.000 Y95.000 Z3.547 E1.46939 F680.6 ; V* 0.40, H* 5.91
G1 X175.000 Y100.000 Z3.547 E1.46939 F680.6 ; V* 0.40, H* 5.91
G1 X175.000 Y105.000 Z3.547 E1.46939 F680.6 ; V* 0.40, H* 5.91
G1 X170.000 Y105.000 Z3.547 E1.46939 F680.6 ; V* 0.40, H* 5.91
G1 X165.000 Y105.000 Z3.547 E1.46939 F680.6 ; V* 0.40, H* 5.91
G1 X160.000 Y105.000 Z3.547 E1.46939 F680.6 ; V* 0.40, H* 5.91
G1 X155.000 Y105.000 Z3.547 E1.46939 F680.6 ; V* 0.40, H* 5.91
G1 X150.000 Y105.000 Z3.547 E1.46939 F680.6 ; V* 0.40, H* 5.91
G1 X145.000 Y105.000 Z3.547 E1.46939 F680.6 ; V* 0.40, H* 5.91
G0 X140.000 Y105.000 Z3.547 F3000.0 ; Param jump: V* 0.28, H* 5.91
G1 X135.000 Y105.000 Z3.547 E2.09560 F477.2 ; V* 0.28, H* 5.91
G1 X130.000 Y105.000 Z3.547 E2.09560 F477.2 ; V* 0.28, H* 5.91
G1 X125.000 Y105.000 Z3.547 E2.09560 F477.2 ; V* 0.28, H* 5.91
G1 X120.000 Y105.000 Z3.547 E2.09560 F477.2 ; V* 0.28, H* 5.91
G1 X115.000 Y105.000 Z3.547 E2.09560 F477.2 ; V* 0.28, H* 5.91
G1 X110.000 Y105.000 Z3.547 E2.09560 F477.2 ; V* 0.28, H* 5.91
G0 X105.000 Y105.000 Z3.547 F3000.0 ; Param jump: V* 0.16, H* 5.91
G1 X100.000 Y105.000 Z3.547 E3.67347 F272.2 ; V* 0.16, H* 5.91
G1 X95.000 Y105.000 Z3.547 E3.67347 F272.2 ; V* 0.16, H* 5.91
G1 X90.000 Y105.000 Z3.547 E3.67347 F272.2 ; V* 0.16, H* 5.91
G1 X85.000 Y105.000 Z3.547 E3.67347 F272.2 ; V* 0.16, H* 5.91
G1 X80.000 Y105.000 Z3.547 E3.67347 F272.2 ; V* 0.16, H* 5.91
G1 X75.000 Y105.000 Z3.547 E3.67347 F272.2 ; V* 0.16, H* 5.91
G1 X75.000 Y110.000 Z3.547 E3.67347 F272.2 ; V* 0.16, H* 5.91
G1 X75.000 Y115.000 Z3.547 E3.67347 F272.2 ; V* 0.16, H* 5.91
G1 X75.000 Y120.000 Z3.547 E3.67347 F272.2 ; V* 0.16, H* 5.91
G0 X75.000 Y125.000 Z5.400 F3000.0 ; Param jump: V* 0.16, H* 9.00
G1 X75.000 Y130.000 Z5.400 E3.67347 F272.2 ; V* 0.16, H* 9.00
G1 X75.000 Y135.000 Z5.400 E3.67347 F272.2 ; V* 0.16, H* 9.00
G1 X75.000 Y140.000 Z5.400 E3.67347 F272.2 ; V* 0.16, H* 9.00
G1 X75.000 Y145.000 Z5.400 E3.67347 F272.2 ; V* 0.16, H* 9.00
G1 X75.000 Y150.000 Z5.400 E3.67347 F272.2 ; V* 0.16, H* 9.00
G1 X75.000 Y155.000 Z5.400 E3.67347 F272.2 ; V* 0.16, H* 9.00
G1 X80.000 Y155.000 Z5.400 E3.67347 F272.2 ; V* 0.16, H* 9.00
G1 X85.000 Y155.000 Z5.400 E3.67347 F272.2 ; V* 0.16, H* 9.00
G1 X90.000 Y155.000 Z5.400 E3.67347 F272.2 ; V* 0.16, H* 9.00
G1 X95.000 Y155.000 Z5.400 E3.67347 F272.2 ; V* 0.16, H* 9.00
G1 X100.000 Y155.000 Z5.400 E3.67347 F272.2 ; V* 0.16, H* 9.00
G1 X105.000 Y155.000 Z5.400 E3.67347 F272.2 ; V* 0.16, H* 9.00
G0 X110.000 Y155.000 Z5.400 F3000.0 ; Param jump: V* 0.28, H* 9.00
G1 X115.000 Y155.000 Z5.400 E2.09560 F477.2 ; V* 0.28, H* 9.00
G1 X120.000 Y155.000 Z5.400 E2.09560 F477.2 ; V* 0.28, H* 9.00
G1 X125.000 Y155.000 Z5.400 E2.09560 F477.2 ; V* 0.28, H* 9.00
G1 X130.000 Y155.000 Z5.400 E2.09560 F477.2 ; V* 0.28, H* 9.00
G1 X135.000 Y155.000 Z5.400 E2.09560 F477.2 ; V* 0.28, H* 9.00
G1 X140.000 Y155.000 Z5.400 E2.09560 F477.2 ; V* 0.28, H* 9.00
G0 X145.000 Y155.000 Z5.400 F3000.0 ; Param jump: V* 0.40, H* 9.00
G1 X150.000 Y155.000 Z5.400 E1.46939 F680.6 ; V* 0.40, H* 9.00
G1 X155.000 Y155.000 Z5.400 E1.46939 F680.6 ; V* 0.40, H* 9.00
G1 X160.000 Y155.000 Z5.400 E1.46939 F680.6 ; V* 0.40, H* 9.00
G1 X165.000 Y155.000 Z5.400 E1.46939 F680.6 ; V* 0.40, H* 9.00
G1 X170.000 Y155.000 Z5.400 E1.46939 F680.6 ; V* 0.40, H* 9.00
G1 X175.000 Y155.000 Z5.400 E1.46939 F680.6 ; V* 0.40, H* 9.00
; ###SIMULATION END###
; --- END GCODE ---
; Prusa MK4 Specific End Gcode
; -------------------------
G0 F10800.000
M104 S0 ; Turn off nozzle temp
M140 S0 ; Turn off bed temp
M107 ; turn off fan
G91 ; Relative positioning
G1 E-5.0 F2000.0 ; Retract
G90 ; Absolute positioning
G1 Z100 F3000.0 ; Lift nozzle
G28 X Y ; Home X and Y
M84 ; Disable motors
; Print completed
; Estimated Duration: 0h 2m
; Material used: 172.90mm
; Edot = 200.0 mm/min
; alpha = 1.5
; Nozzle diameter = 0.4 mm
; Filament diameter = 1.75 mm