; Template Start Gcode with Variables
; Generated by VTP Lithophane Generator
; -------------------------
M140 S{bed_temp} ; Set bed temperature
M109 S{nozzle_temp} ; Wait for extruder to reach temperature
M190 S{bed_temp} ; Wait for bed to reach temperature

G21 ; Set units to millimeters
G90 ; Use absolute positioning
M83 ; E axis to relative mode

G28 ; Auto home
G1 Z5.0 F300 ; Lift nozzle after homing
G1 X0.0 Y0.0 F{travel_speed} ; Move to origin
G92 E0 ; Reset extruder position

; Prime the nozzle
G1 Z0.3 ; Lower nozzle
G1 X{priming_line_length} Y10 F{travel_speed} E15 ; Prime line
G1 Z5 ; Lift nozzle

; Print settings: Nozzle Temp={nozzle_temp}°C, Bed Temp={bed_temp}°C
; Filament: Diameter={filament_diameter}mm
; Nozzle: Diameter={nozzle_diameter}mm
